SAUDISAT 1C (SO-50)     
1 27607U 02058C   26074.28269332  .00001914  00000+0  24290-3 0  9995
2 27607  64.5527  59.4737 0075330 279.6734  79.5868 14.82809007250531
SAUDISAT 2              
1 28371U 04025F   26073.92267326  .00000388  00000+0  97857-4 0  9995
2 28371  98.5500  71.4789 0023864 224.3992 135.5292 14.56621404152020
SAUDISAT 3              
1 31118U 07012B   26074.27781174  .00000366  00000+0  67304-4 0  9998
2 31118  98.1356  24.6749 0015002 161.2195 198.9568 14.71359234 13934
PISAT                   
1 41784U 16059B   26074.27523688  .00001181  00000+0  20912-3 0  9992
2 41784  97.8192  78.7749 0029980 143.2796 217.0472 14.68789020505956
FLYING LAPTOP           
1 42831U 17042G   26074.31286006  .00003581  00000+0  28713-3 0  9997
2 42831  97.4282 233.7368 0019712  77.9230 282.4202 15.00559780472375
SALSAT                  
1 46495U 20068K   26074.23852363  .00010372  00000+0  37867-3 0  9991
2 46495  97.8857  71.6917 0008033 272.6742  87.3577 15.28307413301004
