[{"OBJECT_NAME":"SAUDISAT 1C (SO-50)","OBJECT_ID":"2002-058C","EPOCH":"2026-03-15T06:47:04.702848","MEAN_MOTION":14.82809007,"ECCENTRICITY":0.00753308,"INCLINATION":64.5527,"RA_OF_ASC_NODE":59.4737,"ARG_OF_PERICENTER":279.6734,"MEAN_ANOMALY":79.5868,"EPHEMERIS_TYPE":0,"CLASSIFICATION_TYPE":"U","NORAD_CAT_ID":27607,"ELEMENT_SET_NO":999,"REV_AT_EPOCH":25053,"BSTAR":0.00024290299,"MEAN_MOTION_DOT":1.914e-5,"MEAN_MOTION_DDOT":0},{"OBJECT_NAME":"SAUDISAT 2","OBJECT_ID":"2004-025F","EPOCH":"2026-03-14T22:08:38.969664","MEAN_MOTION":14.56621404,"ECCENTRICITY":0.00238642,"INCLINATION":98.55,"RA_OF_ASC_NODE":71.4789,"ARG_OF_PERICENTER":224.3992,"MEAN_ANOMALY":135.5292,"EPHEMERIS_TYPE":0,"CLASSIFICATION_TYPE":"U","NORAD_CAT_ID":28371,"ELEMENT_SET_NO":999,"REV_AT_EPOCH":15202,"BSTAR":9.7856646e-5,"MEAN_MOTION_DOT":3.88e-6,"MEAN_MOTION_DDOT":0},{"OBJECT_NAME":"SAUDISAT 3","OBJECT_ID":"2007-012B","EPOCH":"2026-03-15T06:40:02.934336","MEAN_MOTION":14.71359234,"ECCENTRICITY":0.00150024,"INCLINATION":98.1356,"RA_OF_ASC_NODE":24.6749,"ARG_OF_PERICENTER":161.2195,"MEAN_ANOMALY":198.9568,"EPHEMERIS_TYPE":0,"CLASSIFICATION_TYPE":"U","NORAD_CAT_ID":31118,"ELEMENT_SET_NO":999,"REV_AT_EPOCH":1393,"BSTAR":6.7303735e-5,"MEAN_MOTION_DOT":3.66e-6,"MEAN_MOTION_DDOT":0},{"OBJECT_NAME":"PISAT","OBJECT_ID":"2016-059B","EPOCH":"2026-03-15T06:36:20.466432","MEAN_MOTION":14.6878902,"ECCENTRICITY":0.00299807,"INCLINATION":97.8192,"RA_OF_ASC_NODE":78.7749,"ARG_OF_PERICENTER":143.2796,"MEAN_ANOMALY":217.0472,"EPHEMERIS_TYPE":0,"CLASSIFICATION_TYPE":"U","NORAD_CAT_ID":41784,"ELEMENT_SET_NO":999,"REV_AT_EPOCH":50595,"BSTAR":0.00020911563,"MEAN_MOTION_DOT":1.181e-5,"MEAN_MOTION_DDOT":0},{"OBJECT_NAME":"FLYING LAPTOP","OBJECT_ID":"2017-042G","EPOCH":"2026-03-15T07:30:31.109184","MEAN_MOTION":15.0055978,"ECCENTRICITY":0.00197127,"INCLINATION":97.4282,"RA_OF_ASC_NODE":233.7368,"ARG_OF_PERICENTER":77.923,"MEAN_ANOMALY":282.4202,"EPHEMERIS_TYPE":0,"CLASSIFICATION_TYPE":"U","NORAD_CAT_ID":42831,"ELEMENT_SET_NO":999,"REV_AT_EPOCH":47237,"BSTAR":0.00028713443,"MEAN_MOTION_DOT":3.581e-5,"MEAN_MOTION_DDOT":0},{"OBJECT_NAME":"SALSAT","OBJECT_ID":"2020-068K","EPOCH":"2026-03-15T05:43:28.441632","MEAN_MOTION":15.28307413,"ECCENTRICITY":0.00080338,"INCLINATION":97.8857,"RA_OF_ASC_NODE":71.6917,"ARG_OF_PERICENTER":272.6742,"MEAN_ANOMALY":87.3577,"EPHEMERIS_TYPE":0,"CLASSIFICATION_TYPE":"U","NORAD_CAT_ID":46495,"ELEMENT_SET_NO":999,"REV_AT_EPOCH":30100,"BSTAR":0.00037867351,"MEAN_MOTION_DOT":0.00010372,"MEAN_MOTION_DDOT":0}]
